{"type": "FeatureCollection", "features": [ {"type": "Feature", "properties": {"norad_id": 58662, "name": "TIANMU-1 21", "group": "weather", "lat": -36.64614793358839, "lon": 117.62680721062759, "alt_km": 478.51381658131413, "timestamp": "2025-12-24T14:43:28.639088+00:00", "meta": {"OBJECT_NAME": "TIANMU-1 21", "OBJECT_ID": "2023-208C", "EPOCH": "2025-12-24T07:02:49.223328", "MEAN_MOTION": 15.31792037, "ECCENTRICITY": 0.00064184, "INCLINATION": 97.4378, "RA_OF_ASC_NODE": 111.7286, "ARG_OF_PERICENTER": 212.2505, "MEAN_ANOMALY": 147.8345, "EPHEMERIS_TYPE": 0, "CLASSIFICATION_TYPE": "U", "NORAD_CAT_ID": 58662, "ELEMENT_SET_NO": 999, "REV_AT_EPOCH": 11076, "BSTAR": 0.0003935232, "MEAN_MOTION_DOT": 0.00012014, "MEAN_MOTION_DDOT": 0}, "tle": {"line1": "1 58662U 23208C   25358.29362527  .00012014  00000+0  39352-3 0  9993", "line2": "2 58662  97.4378 111.7286 0006418 212.2505 147.8345 15.31792037110764"}}, "geometry": {"type": "Point", "coordinates": [117.62680721062759, -36.64614793358839]}}, {"type": "Feature", "properties": {"norad_id": 58663, "name": "TIANMU-1 22", "group": "weather", "lat": 73.89829885499557, "lon": 82.77080729860577, "alt_km": 477.0982026536658, "timestamp": "2025-12-24T14:43:28.639107+00:00", "meta": {"OBJECT_NAME": "TIANMU-1 22", "OBJECT_ID": "2023-208D", "EPOCH": "2025-12-24T06:32:05.666784", "MEAN_MOTION": 15.27793381, "ECCENTRICITY": 0.00029308, "INCLINATION": 97.4386, "RA_OF_ASC_NODE": 109.3417, "ARG_OF_PERICENTER": 227.6034, "MEAN_ANOMALY": 132.4957, "EPHEMERIS_TYPE": 0, "CLASSIFICATION_TYPE": "U", "NORAD_CAT_ID": 58663, "ELEMENT_SET_NO": 999, "REV_AT_EPOCH": 11059, "BSTAR": 0.00035965009, "MEAN_MOTION_DOT": 9.692e-05, "MEAN_MOTION_DDOT": 0}, "tle": {"line1": "1 58663U 23208D   25358.27228781  .00009692  00000+0  35965-3 0  9999", "line2": "2 58663  97.4386 109.3417 0002930 227.6034 132.4957 15.27793381110593"}}, "geometry": {"type": "Point", "coordinates": [82.77080729860577, 73.89829885499557]}}, {"type": "Feature", "properties": {"norad_id": 58700, "name": "TIANMU-1 15", "group": "weather", "lat": 66.84883509384655, "lon": 162.1863579326857, "alt_km": 489.72560949521994, "timestamp": "2025-12-24T14:43:28.639127+00:00", "meta": {"OBJECT_NAME": "TIANMU-1 15", "OBJECT_ID": "2024-004A", "EPOCH": "2025-12-24T06:33:03.015648", "MEAN_MOTION": 15.24553742, "ECCENTRICITY": 0.00060332, "INCLINATION": 97.4627, "RA_OF_ASC_NODE": 179.6991, "ARG_OF_PERICENTER": 241.07, "MEAN_ANOMALY": 118.9933, "EPHEMERIS_TYPE": 0, "CLASSIFICATION_TYPE": "U", "NORAD_CAT_ID": 58700, "ELEMENT_SET_NO": 999, "REV_AT_EPOCH": 10910, "BSTAR": 0.00028863064, "MEAN_MOTION_DOT": 7.039e-05, "MEAN_MOTION_DDOT": 0}, "tle": {"line1": "1 58700U 24004A   25358.27295157  .00007039  00000+0  28863-3 0  9999", "line2": "2 58700  97.4627 179.6991 0006033 241.0700 118.9933 15.24553742109108"}}, "geometry": {"type": "Point", "coordinates": [162.1863579326857, 66.84883509384655]}}, {"type": "Feature", "properties": {"norad_id": 58701, "name": "TIANMU-1 16", "group": "weather", "lat": 28.936942198779555, "lon": 3.5701937916238924, "alt_km": 490.83382268804235, "timestamp": "2025-12-24T14:43:28.639144+00:00", "meta": {"OBJECT_NAME": "TIANMU-1 16", "OBJECT_ID": "2024-004B", "EPOCH": "2025-12-24T07:45:52.425216", "MEAN_MOTION": 15.24583341, "ECCENTRICITY": 0.00043868, "INCLINATION": 97.4567, "RA_OF_ASC_NODE": 179.129, "ARG_OF_PERICENTER": 243.3337, "MEAN_ANOMALY": 116.7451, "EPHEMERIS_TYPE": 0, "CLASSIFICATION_TYPE": "U", "NORAD_CAT_ID": 58701, "ELEMENT_SET_NO": 999, "REV_AT_EPOCH": 10911, "BSTAR": 0.0003236331, "MEAN_MOTION_DOT": 7.907e-05, "MEAN_MOTION_DDOT": 0}, "tle": {"line1": "1 58701U 24004B   25358.32352344  .00007907  00000+0  32363-3 0  9992", "line2": "2 58701  97.4567 179.1290 0004386 243.3337 116.7451 15.24583341109119"}}, "geometry": {"type": "Point", "coordinates": [3.5701937916238924, 28.936942198779555]}}, {"type": "Feature", "properties": {"norad_id": 58702, "name": "TIANMU-1 17", "group": "weather", "lat": -56.43073692890078, "lon": -11.554397017577257, "alt_km": 496.5667198913625, "timestamp": "2025-12-24T14:43:28.639160+00:00", "meta": {"OBJECT_NAME": "TIANMU-1 17", "OBJECT_ID": "2024-004C", "EPOCH": "2025-12-24T07:23:12.850368", "MEAN_MOTION": 15.24626902, "ECCENTRICITY": 0.00035614, "INCLINATION": 97.4601, "RA_OF_ASC_NODE": 179.5293, "ARG_OF_PERICENTER": 244.0629, "MEAN_ANOMALY": 116.0242, "EPHEMERIS_TYPE": 0, "CLASSIFICATION_TYPE": "U", "NORAD_CAT_ID": 58702, "ELEMENT_SET_NO": 999, "REV_AT_EPOCH": 10910, "BSTAR": 0.00031119397, "MEAN_MOTION_DOT": 7.61e-05, "MEAN_MOTION_DDOT": 0}, "tle": {"line1": "1 58702U 24004C   25358.30778762  .00007610  00000+0  31119-3 0  9996", "line2": "2 58702  97.4601 179.5293 0003561 244.0629 116.0242 15.24626902109103"}}, "geometry": {"type": "Point", "coordinates": [-11.554397017577257, -56.43073692890078]}}, {"type": "Feature", "properties": {"norad_id": 58703, "name": "TIANMU-1 18", "group": "weather", "lat": -31.774643770885373, "lon": -175.31175624009688, "alt_km": 498.0226127021924, "timestamp": "2025-12-24T14:43:28.639176+00:00", "meta": {"OBJECT_NAME": "TIANMU-1 18", "OBJECT_ID": "2024-004D", "EPOCH": "2025-12-24T06:59:20.956128", "MEAN_MOTION": 15.24609351, "ECCENTRICITY": 0.00029341, "INCLINATION": 97.4618, "RA_OF_ASC_NODE": 179.7106, "ARG_OF_PERICENTER": 241.156, "MEAN_ANOMALY": 118.9383, "EPHEMERIS_TYPE": 0, "CLASSIFICATION_TYPE": "U", "NORAD_CAT_ID": 58703, "ELEMENT_SET_NO": 999, "REV_AT_EPOCH": 10910, "BSTAR": 0.00028162232, "MEAN_MOTION_DOT": 6.875e-05, "MEAN_MOTION_DDOT": 0}, "tle": {"line1": "1 58703U 24004D   25358.29121477  .00006875  00000+0  28162-3 0  9996", "line2": "2 58703  97.4618 179.7106 0002934 241.1560 118.9383 15.24609351109108"}}, "geometry": {"type": "Point", "coordinates": [-175.31175624009688, -31.774643770885373]}}, {"type": "Feature", "properties": {"norad_id": 58990, "name": "INSAT-3DS", "group": "weather", "lat": -0.04177186610930494, "lon": 36.36954185095539, "alt_km": 35788.83450822149, "timestamp": "2025-12-24T14:43:28.639194+00:00", "meta": {"OBJECT_NAME": "INSAT-3DS", "OBJECT_ID": "2024-033A", "EPOCH": "2025-12-23T23:47:43.165248", "MEAN_MOTION": 1.00271469, "ECCENTRICITY": 0.00012007, "INCLINATION": 0.0583, "RA_OF_ASC_NODE": 100.0979, "ARG_OF_PERICENTER": 175.0644, "MEAN_ANOMALY": 256.6499, "EPHEMERIS_TYPE": 0, "CLASSIFICATION_TYPE": "U", "NORAD_CAT_ID": 58990, "ELEMENT_SET_NO": 999, "REV_AT_EPOCH": 4531, "BSTAR": 0, "MEAN_MOTION_DOT": -1.35e-06, "MEAN_MOTION_DDOT": 0}, "tle": {"line1": "1 58990U 24033A   25357.99147182 -.00000135  00000+0  00000+0 0  9994", "line2": "2 58990   0.0583 100.0979 0001200 175.0644 256.6499  1.00271469 45319"}}, "geometry": {"type": "Point", "coordinates": [36.36954185095539, -0.04177186610930494]}}, {"type": "Feature", "properties": {"norad_id": 59051, "name": "METEOR-M2 4", "group": "weather", "lat": 73.34957179592995, "lon": 166.0465780707799, "alt_km": 813.7912861900986, "timestamp": "2025-12-24T14:43:28.639211+00:00", "meta": {"OBJECT_NAME": "METEOR-M2 4", "OBJECT_ID": "2024-039A", "EPOCH": "2025-12-24T07:29:00.273408", "MEAN_MOTION": 14.2240298, "ECCENTRICITY": 0.00064305, "INCLINATION": 98.6783, "RA_OF_ASC_NODE": 315.0401, "ARG_OF_PERICENTER": 323.8625, "MEAN_ANOMALY": 36.2118, "EPHEMERIS_TYPE": 0, "CLASSIFICATION_TYPE": "U", "NORAD_CAT_ID": 59051, "ELEMENT_SET_NO": 999, "REV_AT_EPOCH": 9440, "BSTAR": 3.7257025e-05, "MEAN_MOTION_DOT": 3.9e-07, "MEAN_MOTION_DDOT": 0}, "tle": {"line1": "1 59051U 24039A   25358.31180872  .00000039  00000+0  37257-4 0  9990", "line2": "2 59051  98.6783 315.0401 0006430 323.8625  36.2118 14.22402980 94409"}}, "geometry": {"type": "Point", "coordinates": [166.0465780707799, 73.34957179592995]}}, {"type": "Feature", "properties": {"norad_id": 60133, "name": "GOES 19", "group": "weather", "lat": 0.004113662720979227, "lon": -120.94616555793594, "alt_km": 35785.75528411315, "timestamp": "2025-12-24T14:43:28.639276+00:00", "meta": {"OBJECT_NAME": "GOES 19", "OBJECT_ID": "2024-119A", "EPOCH": "2025-12-24T05:27:09.221184", "MEAN_MOTION": 1.00271489, "ECCENTRICITY": 0.00010202, "INCLINATION": 0.0168, "RA_OF_ASC_NODE": 190.8662, "ARG_OF_PERICENTER": 132.4729, "MEAN_ANOMALY": 136.2716, "EPHEMERIS_TYPE": 0, "CLASSIFICATION_TYPE": "U", "NORAD_CAT_ID": 60133, "ELEMENT_SET_NO": 999, "REV_AT_EPOCH": 521, "BSTAR": 0, "MEAN_MOTION_DOT": -2.27e-06, "MEAN_MOTION_DDOT": 0}, "tle": {"line1": "1 60133U 24119A   25358.22719006 -.00000227  00000+0  00000+0 0  9990", "line2": "2 60133   0.0168 190.8662 0001020 132.4729 136.2716  1.00271489  5219"}}, "geometry": {"type": "Point", "coordinates": [-120.94616555793594, 0.004113662720979227]}}, {"type": "Feature", "properties": {"norad_id": 65815, "name": "FENGYUN 3H", "group": "weather", "lat": -55.62484073617415, "lon": 105.0738904162771, "alt_km": 833.0568710027364, "timestamp": "2025-12-24T14:43:28.639300+00:00", "meta": {"OBJECT_NAME": "FENGYUN 3H", "OBJECT_ID": "2025-219A", "EPOCH": "2025-12-24T05:09:28.938528", "MEAN_MOTION": 14.19907616, "ECCENTRICITY": 8.226e-05, "INCLINATION": 98.6601, "RA_OF_ASC_NODE": 297.5569, "ARG_OF_PERICENTER": 108.0305, "MEAN_ANOMALY": 252.0961, "EPHEMERIS_TYPE": 0, "CLASSIFICATION_TYPE": "U", "NORAD_CAT_ID": 65815, "ELEMENT_SET_NO": 999, "REV_AT_EPOCH": 1255, "BSTAR": 6.6497963e-05, "MEAN_MOTION_DOT": 9.8e-07, "MEAN_MOTION_DDOT": 0}, "tle": {"line1": "1 65815U 25219A   25358.21491827  .00000098  00000+0  66498-4 0  9994", "line2": "2 65815  98.6601 297.5569 0000822 108.0305 252.0961 14.19907616 12551"}}, "geometry": {"type": "Point", "coordinates": [105.0738904162771, -55.62484073617415]}}]}